[{"OBJECT_NAME":"IRIDIUM 33 DEB","OBJECT_ID":"1997-051UT","EPOCH":"2026-03-07T00:17:04.209792","MEAN_MOTION":14.20587065,"ECCENTRICITY":0.0217265,"INCLINATION":86.4394,"RA_OF_ASC_NODE":273.5082,"ARG_OF_PERICENTER":353.8661,"MEAN_ANOMALY":5.9871,"EPHEMERIS_TYPE":0,"CLASSIFICATION_TYPE":"U","NORAD_CAT_ID":36012,"ELEMENT_SET_NO":999,"REV_AT_EPOCH":66680,"BSTAR":0.0016095,"MEAN_MOTION_DOT":4.409e-5,"MEAN_MOTION_DDOT":0},{"OBJECT_NAME":"IRIDIUM 33 DEB","OBJECT_ID":"1997-051VK","EPOCH":"2026-03-01T21:20:50.659872","MEAN_MOTION":14.99842236,"ECCENTRICITY":0.0017594,"INCLINATION":86.3146,"RA_OF_ASC_NODE":269.3331,"ARG_OF_PERICENTER":119.5716,"MEAN_ANOMALY":240.7272,"EPHEMERIS_TYPE":0,"CLASSIFICATION_TYPE":"U","NORAD_CAT_ID":36028,"ELEMENT_SET_NO":999,"REV_AT_EPOCH":88309,"BSTAR":0.0020734,"MEAN_MOTION_DOT":0.00025841,"MEAN_MOTION_DDOT":0},{"OBJECT_NAME":"IRIDIUM 33 DEB","OBJECT_ID":"1997-051VM","EPOCH":"2026-02-25T12:04:53.950080","MEAN_MOTION":14.47006283,"ECCENTRICITY":0.00148253,"INCLINATION":86.3236,"RA_OF_ASC_NODE":335.417,"ARG_OF_PERICENTER":275.8181,"MEAN_ANOMALY":84.1332,"EPHEMERIS_TYPE":0,"CLASSIFICATION_TYPE":"U","NORAD_CAT_ID":36080,"ELEMENT_SET_NO":999,"REV_AT_EPOCH":48495,"BSTAR":0.00052714098,"MEAN_MOTION_DOT":1.938e-5,"MEAN_MOTION_DDOT":0},{"OBJECT_NAME":"IRIDIUM 33 DEB","OBJECT_ID":"1997-051VQ","EPOCH":"2026-03-07T02:10:19.655328","MEAN_MOTION":14.43602695,"ECCENTRICITY":0.0024716,"INCLINATION":86.3489,"RA_OF_ASC_NODE":357.8355,"ARG_OF_PERICENTER":311.8373,"MEAN_ANOMALY":48.0717,"EPHEMERIS_TYPE":0,"CLASSIFICATION_TYPE":"U","NORAD_CAT_ID":36083,"ELEMENT_SET_NO":999,"REV_AT_EPOCH":86666,"BSTAR":0.0007145,"MEAN_MOTION_DOT":2.449e-5,"MEAN_MOTION_DDOT":0},{"OBJECT_NAME":"IRIDIUM 33 DEB","OBJECT_ID":"1997-051VU","EPOCH":"2026-03-01T06:56:50.102592","MEAN_MOTION":14.74753978,"ECCENTRICITY":0.0027954,"INCLINATION":86.2859,"RA_OF_ASC_NODE":263.3476,"ARG_OF_PERICENTER":255.4751,"MEAN_ANOMALY":104.3366,"EPHEMERIS_TYPE":0,"CLASSIFICATION_TYPE":"U","NORAD_CAT_ID":36390,"ELEMENT_SET_NO":999,"REV_AT_EPOCH":67419,"BSTAR":0.00088857,"MEAN_MOTION_DOT":6.003e-5,"MEAN_MOTION_DDOT":0},{"OBJECT_NAME":"IRIDIUM 33 DEB","OBJECT_ID":"1997-051VZ","EPOCH":"2026-02-25T15:16:02.990208","MEAN_MOTION":14.46131522,"ECCENTRICITY":0.00070006,"INCLINATION":86.3812,"RA_OF_ASC_NODE":20.4101,"ARG_OF_PERICENTER":234.8466,"MEAN_ANOMALY":125.2081,"EPHEMERIS_TYPE":0,"CLASSIFICATION_TYPE":"U","NORAD_CAT_ID":36483,"ELEMENT_SET_NO":999,"REV_AT_EPOCH":66228,"BSTAR":0.00051908604,"MEAN_MOTION_DOT":1.873e-5,"MEAN_MOTION_DDOT":0},{"OBJECT_NAME":"IRIDIUM 33 DEB","OBJECT_ID":"1997-051WG","EPOCH":"2026-03-07T04:02:47.959296","MEAN_MOTION":14.78747283,"ECCENTRICITY":0.0005086,"INCLINATION":86.3669,"RA_OF_ASC_NODE":332.3187,"ARG_OF_PERICENTER":96.5932,"MEAN_ANOMALY":263.5868,"EPHEMERIS_TYPE":0,"CLASSIFICATION_TYPE":"U","NORAD_CAT_ID":36490,"ELEMENT_SET_NO":999,"REV_AT_EPOCH":87731,"BSTAR":0.0017537,"MEAN_MOTION_DOT":0.00012912,"MEAN_MOTION_DDOT":0},{"OBJECT_NAME":"IRIDIUM 33 DEB","OBJECT_ID":"1997-051WK","EPOCH":"2026-03-04T12:02:05.394048","MEAN_MOTION":14.66622153,"ECCENTRICITY":0.00130868,"INCLINATION":86.3608,"RA_OF_ASC_NODE":335.3291,"ARG_OF_PERICENTER":70.4596,"MEAN_ANOMALY":289.803,"EPHEMERIS_TYPE":0,"CLASSIFICATION_TYPE":"U","NORAD_CAT_ID":36493,"ELEMENT_SET_NO":999,"REV_AT_EPOCH":75716,"BSTAR":0.0019813705,"MEAN_MOTION_DOT":0.00011049,"MEAN_MOTION_DDOT":0},{"OBJECT_NAME":"IRIDIUM 33 DEB","OBJECT_ID":"1997-051XH","EPOCH":"2026-02-27T14:47:44.378304","MEAN_MOTION":14.52027279,"ECCENTRICITY":0.00227949,"INCLINATION":86.3541,"RA_OF_ASC_NODE":9.8892,"ARG_OF_PERICENTER":300.6162,"MEAN_ANOMALY":59.2795,"EPHEMERIS_TYPE":0,"CLASSIFICATION_TYPE":"U","NORAD_CAT_ID":37548,"ELEMENT_SET_NO":999,"REV_AT_EPOCH":66647,"BSTAR":0.0010559446,"MEAN_MOTION_DOT":4.301e-5,"MEAN_MOTION_DDOT":0},{"OBJECT_NAME":"IRIDIUM 33 DEB","OBJECT_ID":"1997-051XK","EPOCH":"2026-03-06T12:38:47.102784","MEAN_MOTION":14.68758002,"ECCENTRICITY":0.00030755,"INCLINATION":86.3812,"RA_OF_ASC_NODE":346.7063,"ARG_OF_PERICENTER":133.2414,"MEAN_ANOMALY":226.9058,"EPHEMERIS_TYPE":0,"CLASSIFICATION_TYPE":"U","NORAD_CAT_ID":37550,"ELEMENT_SET_NO":999,"REV_AT_EPOCH":87562,"BSTAR":0.0016316549,"MEAN_MOTION_DOT":9.537e-5,"MEAN_MOTION_DDOT":0},{"OBJECT_NAME":"IRIDIUM 33 DEB","OBJECT_ID":"1997-051XX","EPOCH":"2026-03-06T14:28:06.036960","MEAN_MOTION":14.57479355,"ECCENTRICITY":0.00231624,"INCLINATION":86.3789,"RA_OF_ASC_NODE":7.004,"ARG_OF_PERICENTER":177.3085,"MEAN_ANOMALY":355.7044,"EPHEMERIS_TYPE":0,"CLASSIFICATION_TYPE":"U","NORAD_CAT_ID":37562,"ELEMENT_SET_NO":999,"REV_AT_EPOCH":87549,"BSTAR":0.0014380439,"MEAN_MOTION_DOT":6.576e-5,"MEAN_MOTION_DDOT":0},{"OBJECT_NAME":"IRIDIUM 33 DEB","OBJECT_ID":"1997-051YA","EPOCH":"2026-03-05T01:13:48.216864","MEAN_MOTION":14.51991247,"ECCENTRICITY":0.00130446,"INCLINATION":86.3534,"RA_OF_ASC_NODE":333.7257,"ARG_OF_PERICENTER":155.5044,"MEAN_ANOMALY":204.6784,"EPHEMERIS_TYPE":0,"CLASSIFICATION_TYPE":"U","NORAD_CAT_ID":37565,"ELEMENT_SET_NO":999,"REV_AT_EPOCH":67031,"BSTAR":0.00063775987,"MEAN_MOTION_DOT":2.598e-5,"MEAN_MOTION_DDOT":0},{"OBJECT_NAME":"IRIDIUM 33 DEB","OBJECT_ID":"1997-051YD","EPOCH":"2026-03-06T21:30:32.156928","MEAN_MOTION":14.51851287,"ECCENTRICITY":0.0092093,"INCLINATION":86.3366,"RA_OF_ASC_NODE":129.5426,"ARG_OF_PERICENTER":182.1227,"MEAN_ANOMALY":177.9602,"EPHEMERIS_TYPE":0,"CLASSIFICATION_TYPE":"U","NORAD_CAT_ID":38017,"ELEMENT_SET_NO":999,"REV_AT_EPOCH":62622,"BSTAR":0.0021135,"MEAN_MOTION_DOT":9.019e-5,"MEAN_MOTION_DDOT":0},{"OBJECT_NAME":"IRIDIUM 33 DEB","OBJECT_ID":"1997-051YJ","EPOCH":"2026-03-06T11:38:31.181568","MEAN_MOTION":14.42063599,"ECCENTRICITY":0.0045881,"INCLINATION":86.2727,"RA_OF_ASC_NODE":339.7589,"ARG_OF_PERICENTER":129.2237,"MEAN_ANOMALY":231.305,"EPHEMERIS_TYPE":0,"CLASSIFICATION_TYPE":"U","NORAD_CAT_ID":38022,"ELEMENT_SET_NO":999,"REV_AT_EPOCH":70400,"BSTAR":0.0013484828,"MEAN_MOTION_DOT":4.504e-5,"MEAN_MOTION_DDOT":0},{"OBJECT_NAME":"IRIDIUM 33 DEB","OBJECT_ID":"1997-051YQ","EPOCH":"2026-03-07T00:24:30.599712","MEAN_MOTION":14.46493889,"ECCENTRICITY":0.0023004,"INCLINATION":86.3344,"RA_OF_ASC_NODE":323.6279,"ARG_OF_PERICENTER":198.9687,"MEAN_ANOMALY":161.0661,"EPHEMERIS_TYPE":0,"CLASSIFICATION_TYPE":"U","NORAD_CAT_ID":38028,"ELEMENT_SET_NO":999,"REV_AT_EPOCH":66713,"BSTAR":0.0003638,"MEAN_MOTION_DOT":1.333e-5,"MEAN_MOTION_DDOT":0},{"OBJECT_NAME":"IRIDIUM 33 DEB","OBJECT_ID":"1997-051ZC","EPOCH":"2026-03-03T14:49:03.053280","MEAN_MOTION":14.27439275,"ECCENTRICITY":0.0062368,"INCLINATION":86.2987,"RA_OF_ASC_NODE":14.0747,"ARG_OF_PERICENTER":291.7038,"MEAN_ANOMALY":192.3455,"EPHEMERIS_TYPE":0,"CLASSIFICATION_TYPE":"U","NORAD_CAT_ID":38228,"ELEMENT_SET_NO":999,"REV_AT_EPOCH":85935,"BSTAR":0.00045098,"MEAN_MOTION_DOT":1.147e-5,"MEAN_MOTION_DDOT":0}]
